start=new Date('2022-07-18T00:00:00.000Z').valueOf();
sats=[{"GP_ID":"208341800","BSTAR":"-0.00029766000000","RA_OF_ASC_NODE":"122.4619","NORAD_CAT_ID":"52635","APOAPSIS":"351.559","ECCENTRICITY":"0.00025380","OBJECT_ID":"2022-052AP","LAUNCH_DATE":"2022-05-14","COUNTRY_CODE":"US","OBJECT_TYPE":"PAYLOAD","ELEMENT_SET_NO":"999","TLE_LINE1":"1 52635U 22052AP  22198.91667824 -.00042137  00000-0 -29766-3 0  9999","MEAN_MOTION":"15.73167977","MEAN_ELEMENT_THEORY":"SGP4","CLASSIFICATION_TYPE":"U","PERIAPSIS":"348.144","EPOCH":"2022-07-17T22:00:00.999936","EPHEMERIS_TYPE":"0","REF_FRAME":"TEME","FILE":"3516387","TIME_SYSTEM":"UTC","RCS_SIZE":"LARGE","CENTER_NAME":"EARTH","PERIOD":"91.535","SITE":"AFETR","INCLINATION":"53.2160","REV_AT_EPOCH":"130","TLE_LINE2":"2 52635  53.2160 122.4619 0002538  24.4954  48.3799 15.73167977  1308","SEMIMAJOR_AXIS":"6727.986","ARG_OF_PERICENTER":"24.4954","MEAN_ANOMALY":"48.3799","OBJECT_NAME":"STARLINK-3978","MEAN_MOTION_DDOT":"0.0000000000000","MEAN_MOTION_DOT":"-0.00042137","DECAY_DATE":null},{"OBJECT_TYPE":"PAYLOAD","COUNTRY_CODE":"US","MEAN_MOTION":"15.40565779","TLE_LINE1":"1 52636U 22052AQ  22198.91667824 -.01069857  00000-0 -28216-1 0  9996","ELEMENT_SET_NO":"999","RA_OF_ASC_NODE":"124.6130","GP_ID":"208341319","BSTAR":"-0.02821600000000","LAUNCH_DATE":"2022-05-14","OBJECT_ID":"2022-052AQ","ECCENTRICITY":"0.00012820","APOAPSIS":"445.315","NORAD_CAT_ID":"52636","DECAY_DATE":null,"MEAN_MOTION_DOT":"-0.01069857","MEAN_MOTION_DDOT":"0.0000000000000","OBJECT_NAME":"STARLINK-3967","MEAN_ANOMALY":"56.5055","ARG_OF_PERICENTER":"92.6745","SEMIMAJOR_AXIS":"6822.575","REF_FRAME":"TEME","EPHEMERIS_TYPE":"0","EPOCH":"2022-07-17T22:00:00.999936","PERIAPSIS":"443.566","CLASSIFICATION_TYPE":"U","MEAN_ELEMENT_THEORY":"SGP4","TLE_LINE2":"2 52636  53.2177 124.6130 0001282  92.6745  56.5055 15.40565779  1301","REV_AT_EPOCH":"130","SITE":"AFETR","INCLINATION":"53.2177","PERIOD":"93.472","CENTER_NAME":"EARTH","RCS_SIZE":"LARGE","TIME_SYSTEM":"UTC","FILE":"3516387"},{"MEAN_ELEMENT_THEORY":"SGP4","EPOCH":"2022-07-17T22:00:00.999936","EPHEMERIS_TYPE":"0","REF_FRAME":"TEME","PERIAPSIS":"348.249","CLASSIFICATION_TYPE":"U","FILE":"3516387","RCS_SIZE":"LARGE","TIME_SYSTEM":"UTC","REV_AT_EPOCH":"130","TLE_LINE2":"2 52637  53.2159 122.4599 0002487  17.7270  55.7198 15.73143056  1301","CENTER_NAME":"EARTH","PERIOD":"91.536","INCLINATION":"53.2159","SITE":"AFETR","SEMIMAJOR_AXIS":"6728.058","ARG_OF_PERICENTER":"17.7270","MEAN_MOTION_DDOT":"0.0000000000000","MEAN_MOTION_DOT":"0.00012309","DECAY_DATE":null,"MEAN_ANOMALY":"55.7198","OBJECT_NAME":"STARLINK-3961","BSTAR":"0.00009221400000","GP_ID":"208341905","RA_OF_ASC_NODE":"122.4599","APOAPSIS":"351.596","NORAD_CAT_ID":"52637","OBJECT_ID":"2022-052AR","LAUNCH_DATE":"2022-05-14","ECCENTRICITY":"0.00024870","COUNTRY_CODE":"US","OBJECT_TYPE":"PAYLOAD","TLE_LINE1":"1 52637U 22052AR  22198.91667824  .00012309  00000-0  92214-4 0  9996","MEAN_MOTION":"15.73143056","ELEMENT_SET_NO":"999"},{"COUNTRY_CODE":"US","OBJECT_TYPE":"PAYLOAD","MEAN_MOTION":"15.40860907","TLE_LINE1":"1 52638U 22052AS  22198.91667824 -.01069733  00000-0 -27936-1 0  9999","ELEMENT_SET_NO":"999","GP_ID":"208341575","BSTAR":"-0.02793600000000","RA_OF_ASC_NODE":"124.6218","APOAPSIS":"444.449","NORAD_CAT_ID":"52638","LAUNCH_DATE":"2022-05-14","OBJECT_ID":"2022-052AS","ECCENTRICITY":"0.00012890","ARG_OF_PERICENTER":"92.1999","SEMIMAJOR_AXIS":"6821.704","DECAY_DATE":null,"MEAN_MOTION_DDOT":"0.0000000000000","MEAN_MOTION_DOT":"-0.01069733","OBJECT_NAME":"STARLINK-3941","MEAN_ANOMALY":"62.1072","MEAN_ELEMENT_THEORY":"SGP4","REF_FRAME":"TEME","EPHEMERIS_TYPE":"0","EPOCH":"2022-07-17T22:00:00.999936","PERIAPSIS":"442.690","CLASSIFICATION_TYPE":"U","RCS_SIZE":"LARGE","TIME_SYSTEM":"UTC","FILE":"3516387","TLE_LINE2":"2 52638  53.2177 124.6218 0001289  92.1999  62.1072 15.40860907  1306","REV_AT_EPOCH":"130","SITE":"AFETR","INCLINATION":"53.2177","PERIOD":"93.454","CENTER_NAME":"EARTH"},{"OBJECT_NAME":"STARLINK-3968","MEAN_ANOMALY":"51.1739","DECAY_DATE":null,"MEAN_MOTION_DOT":"-0.00023971","MEAN_MOTION_DDOT":"0.0000000000000","ARG_OF_PERICENTER":"24.0623","SEMIMAJOR_AXIS":"6727.970","CLASSIFICATION_TYPE":"U","PERIAPSIS":"348.129","EPHEMERIS_TYPE":"0","REF_FRAME":"TEME","EPOCH":"2022-07-17T22:00:00.999936","MEAN_ELEMENT_THEORY":"SGP4","SITE":"AFETR","INCLINATION":"53.2159","CENTER_NAME":"EARTH","PERIOD":"91.535","TLE_LINE2":"2 52639  53.2159 122.4560 0002535  24.0623  51.1739 15.73173836  1308","REV_AT_EPOCH":"130","RCS_SIZE":"LARGE","TIME_SYSTEM":"UTC","FILE":"3516387","OBJECT_TYPE":"PAYLOAD","COUNTRY_CODE":"US","ELEMENT_SET_NO":"999","MEAN_MOTION":"15.73173836","TLE_LINE1":"1 52639U 22052AT  22198.91667824 -.00023971  00000-0 -16701-3 0  9993","RA_OF_ASC_NODE":"122.4560","GP_ID":"208341433","BSTAR":"-0.00016701000000","ECCENTRICITY":"0.00025350","LAUNCH_DATE":"2022-05-14","OBJECT_ID":"2022-052AT","NORAD_CAT_ID":"52639","APOAPSIS":"351.540"},{"RA_OF_ASC_NODE":"122.4632","BSTAR":"-0.00059376000000","GP_ID":"208341687","ECCENTRICITY":"0.00027630","LAUNCH_DATE":"2022-05-14","OBJECT_ID":"2022-052AU","NORAD_CAT_ID":"52640","APOAPSIS":"351.647","OBJECT_TYPE":"PAYLOAD","COUNTRY_CODE":"US","ELEMENT_SET_NO":"999","MEAN_MOTION":"15.73190184","TLE_LINE1":"1 52640U 22052AU  22198.91667824 -.00083118  00000-0 -59376-3 0  9999","CLASSIFICATION_TYPE":"U","PERIAPSIS":"347.929","REF_FRAME":"TEME","EPHEMERIS_TYPE":"0","EPOCH":"2022-07-17T22:00:00.999936","MEAN_ELEMENT_THEORY":"SGP4","INCLINATION":"53.2160","SITE":"AFETR","CENTER_NAME":"EARTH","PERIOD":"91.534","TLE_LINE2":"2 52640  53.2160 122.4632 0002763  19.2421  53.0564 15.73190184  1309","REV_AT_EPOCH":"130","RCS_SIZE":"LARGE","TIME_SYSTEM":"UTC","FILE":"3516387","OBJECT_NAME":"STARLINK-3977","MEAN_ANOMALY":"53.0564","DECAY_DATE":null,"MEAN_MOTION_DOT":"-0.00083118","MEAN_MOTION_DDOT":"0.0000000000000","ARG_OF_PERICENTER":"19.2421","SEMIMAJOR_AXIS":"6727.923"},{"MEAN_MOTION":"15.73236174","TLE_LINE1":"1 52641U 22052AV  22198.91667824 -.00123664  00000-0 -88816-3 0  9992","ELEMENT_SET_NO":"999","OBJECT_TYPE":"PAYLOAD","COUNTRY_CODE":"US","LAUNCH_DATE":"2022-05-14","OBJECT_ID":"2022-052AV","ECCENTRICITY":"0.00023080","APOAPSIS":"351.210","NORAD_CAT_ID":"52641","RA_OF_ASC_NODE":"122.4546","GP_ID":"208316281","BSTAR":"-0.00088816000000","DECAY_DATE":null,"MEAN_MOTION_DOT":"-0.00123664","MEAN_MOTION_DDOT":"0.0000000000000","OBJECT_NAME":"STARLINK-3991","MEAN_ANOMALY":"49.5019","ARG_OF_PERICENTER":"26.3410","SEMIMAJOR_AXIS":"6727.792","TLE_LINE2":"2 52641  53.2159 122.4546 0002308  26.3410  49.5019 15.73236174 10477","REV_AT_EPOCH":"1047","INCLINATION":"53.2159","SITE":"AFETR","CENTER_NAME":"EARTH","PERIOD":"91.531","RCS_SIZE":"LARGE","TIME_SYSTEM":"UTC","FILE":"3516377","REF_FRAME":"TEME","EPHEMERIS_TYPE":"0","EPOCH":"2022-07-17T22:00:00.999936","CLASSIFICATION_TYPE":"U","PERIAPSIS":"348.104","MEAN_ELEMENT_THEORY":"SGP4"},{"MEAN_ELEMENT_THEORY":"SGP4","EPOCH":"2022-07-17T22:00:00.999936","EPHEMERIS_TYPE":"0","REF_FRAME":"TEME","CLASSIFICATION_TYPE":"U","PERIAPSIS":"348.025","FILE":"3516387","TIME_SYSTEM":"UTC","RCS_SIZE":"LARGE","REV_AT_EPOCH":"130","TLE_LINE2":"2 52642  53.2160 122.4597 0002419  22.7566  51.2883 15.73237795  1302","CENTER_NAME":"EARTH","PERIOD":"91.531","SITE":"AFETR","INCLINATION":"53.2160","SEMIMAJOR_AXIS":"6727.787","ARG_OF_PERICENTER":"22.7566","MEAN_MOTION_DOT":"-0.00119111","MEAN_MOTION_DDOT":"0.0000000000000","DECAY_DATE":null,"MEAN_ANOMALY":"51.2883","OBJECT_NAME":"STARLINK-3971","GP_ID":"208341207","BSTAR":"-0.00085476000000","RA_OF_ASC_NODE":"122.4597","APOAPSIS":"351.280","NORAD_CAT_ID":"52642","OBJECT_ID":"2022-052AW","LAUNCH_DATE":"2022-05-14","ECCENTRICITY":"0.00024190","COUNTRY_CODE":"US","OBJECT_TYPE":"PAYLOAD","TLE_LINE1":"1 52642U 22052AW  22198.91667824 -.00119111  00000-0 -85476-3 0  9994","MEAN_MOTION":"15.73237795","ELEMENT_SET_NO":"999"},{"MEAN_ELEMENT_THEORY":"SGP4","PERIAPSIS":"347.308","CLASSIFICATION_TYPE":"U","EPOCH":"2022-07-17T22:00:00.999936","EPHEMERIS_TYPE":"0","REF_FRAME":"TEME","FILE":"3516387","TIME_SYSTEM":"UTC","RCS_SIZE":"LARGE","CENTER_NAME":"EARTH","PERIOD":"91.517","INCLINATION":"53.2156","SITE":"AFETR","REV_AT_EPOCH":"130","TLE_LINE2":"2 52643  53.2156 122.4502 0002469  33.8554  44.5043 15.73477609  1302","SEMIMAJOR_AXIS":"6727.104","ARG_OF_PERICENTER":"33.8554","MEAN_ANOMALY":"44.5043","OBJECT_NAME":"STARLINK-3963","MEAN_MOTION_DOT":"-0.01084800","MEAN_MOTION_DDOT":"0.0000000000000","DECAY_DATE":null,"BSTAR":"-0.00850920000000","GP_ID":"208341801","RA_OF_ASC_NODE":"122.4502","NORAD_CAT_ID":"52643","APOAPSIS":"350.630","ECCENTRICITY":"0.00024690","OBJECT_ID":"2022-052AX","LAUNCH_DATE":"2022-05-14","COUNTRY_CODE":"US","OBJECT_TYPE":"PAYLOAD","ELEMENT_SET_NO":"999","TLE_LINE1":"1 52643U 22052AX  22198.91667824 -.01084800  00000-0 -85092-2 0  9995","MEAN_MOTION":"15.73477609"},{"BSTAR":"-0.00064681000000","GP_ID":"208341320","RA_OF_ASC_NODE":"122.4579","NORAD_CAT_ID":"52644","APOAPSIS":"351.831","ECCENTRICITY":"0.00030080","LAUNCH_DATE":"2022-05-14","OBJECT_ID":"2022-052AY","COUNTRY_CODE":"US","OBJECT_TYPE":"PAYLOAD","ELEMENT_SET_NO":"999","MEAN_MOTION":"15.73183563","TLE_LINE1":"1 52644U 22052AY  22198.91667824 -.00090391  00000-0 -64681-3 0  9999","MEAN_ELEMENT_THEORY":"SGP4","PERIAPSIS":"347.783","CLASSIFICATION_TYPE":"U","REF_FRAME":"TEME","EPHEMERIS_TYPE":"0","EPOCH":"2022-07-17T22:00:00.999936","RCS_SIZE":"LARGE","TIME_SYSTEM":"UTC","FILE":"3516387","SITE":"AFETR","INCLINATION":"53.2162","CENTER_NAME":"EARTH","PERIOD":"91.534","TLE_LINE2":"2 52644  53.2162 122.4579 0003008  13.8081  60.8625 15.73183563  1307","REV_AT_EPOCH":"130","ARG_OF_PERICENTER":"13.8081","SEMIMAJOR_AXIS":"6727.942","OBJECT_NAME":"STARLINK-3985","MEAN_ANOMALY":"60.8625","DECAY_DATE":null,"MEAN_MOTION_DDOT":"0.0000000000000","MEAN_MOTION_DOT":"-0.00090391"}];
